start=new Date('2022-03-15T00:00:00.000Z').valueOf();
sats=[{"SITE":"AFETR","MEAN_MOTION_DDOT":"0.0000000000000","OBJECT_ID":"2021-021BD","RA_OF_ASC_NODE":"343.4065","TIME_SYSTEM":"UTC","PERIOD":"95.593","REV_AT_EPOCH":"5635","EPOCH":"2022-03-14T13:38:08.180736","LAUNCH_DATE":"2021-03-14","CLASSIFICATION_TYPE":"U","INCLINATION":"53.0555","SEMIMAJOR_AXIS":"6925.392","DECAY_DATE":null,"TLE_LINE1":"1 47911U 21021BD  22073.56815024 -.00000031  00000-0  16805-4 0  9992","ARG_OF_PERICENTER":"65.2821","MEAN_MOTION":"15.06385669","RCS_SIZE":"LARGE","MEAN_MOTION_DOT":"-0.00000031","GP_ID":"198738151","OBJECT_NAME":"STARLINK-2371","OBJECT_TYPE":"PAYLOAD","TLE_LINE2":"2 47911  53.0555 343.4065 0001450  65.2821 294.8319 15.06385669 56350","ELEMENT_SET_NO":"999","PERIAPSIS":"546.253","MEAN_ELEMENT_THEORY":"SGP4","EPHEMERIS_TYPE":"0","BSTAR":"0.00001680500000","FILE":"3359299","MEAN_ANOMALY":"294.8319","CENTER_NAME":"EARTH","APOAPSIS":"548.262","NORAD_CAT_ID":"47911","COUNTRY_CODE":"US","ECCENTRICITY":"0.00014500","REF_FRAME":"TEME"},{"CENTER_NAME":"EARTH","MEAN_ANOMALY":"297.1569","FILE":"3359259","BSTAR":"-0.00011209000000","EPHEMERIS_TYPE":"0","REF_FRAME":"TEME","ECCENTRICITY":"0.00018010","COUNTRY_CODE":"US","NORAD_CAT_ID":"47912","APOAPSIS":"548.486","TLE_LINE2":"2 47912  53.0568 328.9921 0001801  62.9603 297.1569 15.06391689 56549","OBJECT_TYPE":"PAYLOAD","OBJECT_NAME":"STARLINK-2372","GP_ID":"198734109","MEAN_ELEMENT_THEORY":"SGP4","PERIAPSIS":"545.992","ELEMENT_SET_NO":"999","ARG_OF_PERICENTER":"62.9603","TLE_LINE1":"1 47912U 21021BE  22073.43593809 -.00001950  00000-0 -11209-3 0  9997","DECAY_DATE":null,"SEMIMAJOR_AXIS":"6925.374","INCLINATION":"53.0568","LAUNCH_DATE":"2021-03-14","CLASSIFICATION_TYPE":"U","MEAN_MOTION_DOT":"-0.00001950","RCS_SIZE":"LARGE","MEAN_MOTION":"15.06391689","PERIOD":"95.593","TIME_SYSTEM":"UTC","RA_OF_ASC_NODE":"328.9921","MEAN_MOTION_DDOT":"0.0000000000000","SITE":"AFETR","OBJECT_ID":"2021-021BE","EPOCH":"2022-03-14T10:27:45.050976","REV_AT_EPOCH":"5654"},{"EPHEMERIS_TYPE":"0","FILE":"3359259","BSTAR":"0.00148240000000","CENTER_NAME":"EARTH","MEAN_ANOMALY":"315.4387","NORAD_CAT_ID":"47913","APOAPSIS":"548.410","ECCENTRICITY":"0.00018220","COUNTRY_CODE":"US","REF_FRAME":"TEME","GP_ID":"198734858","OBJECT_NAME":"STARLINK-2374","OBJECT_TYPE":"PAYLOAD","TLE_LINE2":"2 47913  53.0561 338.8841 0001822  44.6748 315.4387 15.06421428 56574","ELEMENT_SET_NO":"999","MEAN_ELEMENT_THEORY":"SGP4","PERIAPSIS":"545.886","INCLINATION":"53.0561","CLASSIFICATION_TYPE":"U","LAUNCH_DATE":"2021-03-14","SEMIMAJOR_AXIS":"6925.283","ARG_OF_PERICENTER":"44.6748","TLE_LINE1":"1 47913U 21021BF  22073.46355085  .00021881  00000-0  14824-2 0  9991","DECAY_DATE":null,"MEAN_MOTION":"15.06421428","RCS_SIZE":"LARGE","MEAN_MOTION_DOT":"0.00021881","SITE":"AFETR","MEAN_MOTION_DDOT":"0.0000000000000","OBJECT_ID":"2021-021BF","TIME_SYSTEM":"UTC","RA_OF_ASC_NODE":"338.8841","PERIOD":"95.591","EPOCH":"2022-03-14T11:07:30.793440","REV_AT_EPOCH":"5657"},{"REV_AT_EPOCH":"5661","EPOCH":"2022-03-14T19:01:16.227552","PERIOD":"95.592","TIME_SYSTEM":"UTC","RA_OF_ASC_NODE":"337.4007","MEAN_MOTION_DDOT":"0.0000000000000","SITE":"AFETR","OBJECT_ID":"2021-021BG","MEAN_MOTION_DOT":"0.00001290","RCS_SIZE":"LARGE","MEAN_MOTION":"15.06400363","ARG_OF_PERICENTER":"69.3167","DECAY_DATE":null,"TLE_LINE1":"1 47914U 21021BG  22073.79254893  .00001290  00000-0  10551-3 0  9999","SEMIMAJOR_AXIS":"6925.347","INCLINATION":"53.0565","CLASSIFICATION_TYPE":"U","LAUNCH_DATE":"2021-03-14","PERIAPSIS":"546.200","MEAN_ELEMENT_THEORY":"SGP4","ELEMENT_SET_NO":"999","TLE_LINE2":"2 47914  53.0565 337.4007 0001462  69.3167 290.7979 15.06400363 56619","OBJECT_TYPE":"PAYLOAD","OBJECT_NAME":"STARLINK-2375","GP_ID":"198768577","REF_FRAME":"TEME","COUNTRY_CODE":"US","ECCENTRICITY":"0.00014620","NORAD_CAT_ID":"47914","APOAPSIS":"548.225","CENTER_NAME":"EARTH","MEAN_ANOMALY":"290.7979","FILE":"3359665","BSTAR":"0.00010551000000","EPHEMERIS_TYPE":"0"},{"ELEMENT_SET_NO":"999","PERIAPSIS":"545.935","MEAN_ELEMENT_THEORY":"SGP4","GP_ID":"198733857","OBJECT_NAME":"STARLINK-2376","OBJECT_TYPE":"PAYLOAD","TLE_LINE2":"2 47915  53.0565 333.8993 0001760  72.9167 287.2014 15.06419528 56642","NORAD_CAT_ID":"47915","APOAPSIS":"548.373","COUNTRY_CODE":"US","ECCENTRICITY":"0.00017600","REF_FRAME":"TEME","EPHEMERIS_TYPE":"0","FILE":"3359259","BSTAR":"0.00105730000000","CENTER_NAME":"EARTH","MEAN_ANOMALY":"287.2014","EPOCH":"2022-03-14T11:01:33.980448","REV_AT_EPOCH":"5664","SITE":"AFETR","MEAN_MOTION_DDOT":"0.0000000000000","OBJECT_ID":"2021-021BH","TIME_SYSTEM":"UTC","RA_OF_ASC_NODE":"333.8993","PERIOD":"95.591","MEAN_MOTION":"15.06419528","MEAN_MOTION_DOT":"0.00015510","RCS_SIZE":"LARGE","INCLINATION":"53.0565","CLASSIFICATION_TYPE":"U","LAUNCH_DATE":"2021-03-14","SEMIMAJOR_AXIS":"6925.289","ARG_OF_PERICENTER":"72.9167","DECAY_DATE":null,"TLE_LINE1":"1 47915U 21021BH  22073.45942107  .00015510  00000-0  10573-2 0  9998"},{"PERIOD":"95.592","SITE":"AFETR","MEAN_MOTION_DDOT":"0.0000000000000","OBJECT_ID":"2021-021BJ","TIME_SYSTEM":"UTC","RA_OF_ASC_NODE":"317.2190","REV_AT_EPOCH":"5688","EPOCH":"2022-03-14T19:57:00.375840","SEMIMAJOR_AXIS":"6925.363","ARG_OF_PERICENTER":"64.3051","TLE_LINE1":"1 47916U 21021BJ  22073.83125435 -.00003100  00000-0 -18933-3 0  9991","DECAY_DATE":null,"INCLINATION":"53.0553","LAUNCH_DATE":"2021-03-14","CLASSIFICATION_TYPE":"U","RCS_SIZE":"LARGE","MEAN_MOTION_DOT":"-0.00003100","MEAN_MOTION":"15.06395405","OBJECT_TYPE":"PAYLOAD","TLE_LINE2":"2 47916  53.0553 317.2190 0001678  64.3051 295.8112 15.06395405 56887","GP_ID":"198768076","OBJECT_NAME":"STARLINK-2378","ELEMENT_SET_NO":"999","MEAN_ELEMENT_THEORY":"SGP4","PERIAPSIS":"546.066","FILE":"3359665","BSTAR":"-0.00018933000000","CENTER_NAME":"EARTH","MEAN_ANOMALY":"295.8112","EPHEMERIS_TYPE":"0","COUNTRY_CODE":"US","ECCENTRICITY":"0.00016780","REF_FRAME":"TEME","NORAD_CAT_ID":"47916","APOAPSIS":"548.390"},{"MEAN_MOTION_DOT":"-0.00002001","RCS_SIZE":"LARGE","MEAN_MOTION":"15.06402889","SEMIMAJOR_AXIS":"6925.340","ARG_OF_PERICENTER":"58.8828","TLE_LINE1":"1 47917U 21021BK  22073.43961633 -.00002001  00000-0 -11545-3 0  9997","DECAY_DATE":null,"INCLINATION":"53.0548","LAUNCH_DATE":"2021-03-14","CLASSIFICATION_TYPE":"U","EPOCH":"2022-03-14T10:33:02.850912","REV_AT_EPOCH":"5667","PERIOD":"95.592","MEAN_MOTION_DDOT":"0.0000000000000","SITE":"AFETR","OBJECT_ID":"2021-021BK","TIME_SYSTEM":"UTC","RA_OF_ASC_NODE":"328.9936","COUNTRY_CODE":"US","ECCENTRICITY":"0.00017630","REF_FRAME":"TEME","NORAD_CAT_ID":"47917","APOAPSIS":"548.426","FILE":"3359259","BSTAR":"-0.00011545000000","MEAN_ANOMALY":"301.2334","CENTER_NAME":"EARTH","EPHEMERIS_TYPE":"0","ELEMENT_SET_NO":"999","PERIAPSIS":"545.984","MEAN_ELEMENT_THEORY":"SGP4","OBJECT_TYPE":"PAYLOAD","TLE_LINE2":"2 47917  53.0548 328.9936 0001763  58.8828 301.2334 15.06402889 56674","GP_ID":"198734359","OBJECT_NAME":"STARLINK-2397"},{"MEAN_ANOMALY":"293.9955","CENTER_NAME":"EARTH","FILE":"3359665","BSTAR":"-0.00006020600000","EPHEMERIS_TYPE":"0","REF_FRAME":"TEME","COUNTRY_CODE":"US","ECCENTRICITY":"0.00018030","NORAD_CAT_ID":"47918","APOAPSIS":"548.466","TLE_LINE2":"2 47918  53.0534 327.1689 0001803  66.1222 293.9955 15.06398851 56760","OBJECT_TYPE":"PAYLOAD","OBJECT_NAME":"STARLINK-2398","GP_ID":"198769077","MEAN_ELEMENT_THEORY":"SGP4","PERIAPSIS":"545.968","ELEMENT_SET_NO":"999","ARG_OF_PERICENTER":"66.1222","DECAY_DATE":null,"TLE_LINE1":"1 47918U 21021BL  22073.84507343 -.00001178  00000-0 -60206-4 0  9990","SEMIMAJOR_AXIS":"6925.352","INCLINATION":"53.0534","LAUNCH_DATE":"2021-03-14","CLASSIFICATION_TYPE":"U","MEAN_MOTION_DOT":"-0.00001178","RCS_SIZE":"LARGE","MEAN_MOTION":"15.06398851","PERIOD":"95.592","TIME_SYSTEM":"UTC","RA_OF_ASC_NODE":"327.1689","SITE":"AFETR","MEAN_MOTION_DDOT":"0.0000000000000","OBJECT_ID":"2021-021BL","EPOCH":"2022-03-14T20:16:54.344352","REV_AT_EPOCH":"5676"},{"PERIAPSIS":"545.808","MEAN_ELEMENT_THEORY":"SGP4","ELEMENT_SET_NO":"999","OBJECT_NAME":"STARLINK-2405","GP_ID":"198733358","TLE_LINE2":"2 47919  53.0562 339.0060 0002136  46.2917 313.8249 15.06375947 56542","OBJECT_TYPE":"PAYLOAD","NORAD_CAT_ID":"47919","APOAPSIS":"548.767","REF_FRAME":"TEME","ECCENTRICITY":"0.00021360","COUNTRY_CODE":"US","EPHEMERIS_TYPE":"0","MEAN_ANOMALY":"313.8249","CENTER_NAME":"EARTH","FILE":"3359259","BSTAR":"-0.00040651000000","REV_AT_EPOCH":"5654","EPOCH":"2022-03-14T10:21:06.782400","TIME_SYSTEM":"UTC","RA_OF_ASC_NODE":"339.0060","MEAN_MOTION_DDOT":"0.0000000000000","SITE":"AFETR","OBJECT_ID":"2021-021BM","PERIOD":"95.594","MEAN_MOTION":"15.06375947","MEAN_MOTION_DOT":"-0.00006328","RCS_SIZE":"LARGE","INCLINATION":"53.0562","CLASSIFICATION_TYPE":"U","LAUNCH_DATE":"2021-03-14","ARG_OF_PERICENTER":"46.2917","DECAY_DATE":null,"TLE_LINE1":"1 47919U 21021BM  22073.43132850 -.00006328  00000-0 -40651-3 0  9996","SEMIMAJOR_AXIS":"6925.422"},{"GP_ID":"198734616","OBJECT_NAME":"STARLINK-2087","OBJECT_TYPE":"PAYLOAD","TLE_LINE2":"2 47977  53.0569  23.3749 0001630  53.2925 306.8213 15.06391609 55236","ELEMENT_SET_NO":"999","MEAN_ELEMENT_THEORY":"SGP4","PERIAPSIS":"546.110","EPHEMERIS_TYPE":"0","FILE":"3359259","BSTAR":"-0.00002792100000","CENTER_NAME":"EARTH","MEAN_ANOMALY":"306.8213","NORAD_CAT_ID":"47977","APOAPSIS":"548.368","COUNTRY_CODE":"US","ECCENTRICITY":"0.00016300","REF_FRAME":"TEME","SITE":"AFETR","MEAN_MOTION_DDOT":"0.0000000000000","OBJECT_ID":"2021-024A","TIME_SYSTEM":"UTC","RA_OF_ASC_NODE":"23.3749","PERIOD":"95.593","EPOCH":"2022-03-14T13:44:47.867136","REV_AT_EPOCH":"5523","INCLINATION":"53.0569","LAUNCH_DATE":"2021-03-24","CLASSIFICATION_TYPE":"U","SEMIMAJOR_AXIS":"6925.374","ARG_OF_PERICENTER":"53.2925","TLE_LINE1":"1 47977U 21024A   22073.57277624 -.00000697  00000-0 -27921-4 0  9996","DECAY_DATE":null,"MEAN_MOTION":"15.06391609","RCS_SIZE":"LARGE","MEAN_MOTION_DOT":"-0.00000697"}];
